{"fetched_at":"2026-05-03T06:27:58Z","count":17151,"tles":[{"name":"STARLINK-37488","line1":"1 68859U 26094W   26122.41670139 -.01720203  91133-3 -31550-2 0  9994","line2":"2 68859  97.2812 136.0805 0001220  91.2190 152.6452 16.01439851  2002","category":"Starlink"}]}