{
  "norad_id": 68859,
  "name": "STARLINK-37488",
  "history": [
    {
      "epoch": "2026-05-02T10:00:03.000096Z",
      "apogee_km": 271.24169680167233,
      "perigee_km": 269.6194463142119,
      "latitude_deg": -63.15046165772344,
      "longitude_deg": -68.80200136907771,
      "height_km": 295.39320257614486,
      "semi_major_axis_km": 6648.567571557942,
      "eccentricity": 0.000122,
      "inclination_deg": 97.2812,
      "raan_deg": 136.0805,
      "arg_perigee_deg": 91.219,
      "mean_anomaly_deg": 152.6452,
      "mean_motion_rev_day": 16.01439851
    }
  ]
}